start=new Date('2021-09-24T00:00:00.000Z').valueOf();
sats=[{"RCS_SIZE":"LARGE","MEAN_MOTION_DOT":"0.00000879","MEAN_MOTION_DDOT":"0.0000000000000","OBJECT_ID":"2020-019M","GP_ID":"185347054","OBJECT_TYPE":"PAYLOAD","INCLINATION":"53.0524","REV_AT_EPOCH":"8436","APOAPSIS":"547.576","BSTAR":"0.00007788800000","EPHEMERIS_TYPE":"0","MEAN_ANOMALY":"303.4911","RA_OF_ASC_NODE":"274.7380","PERIOD":"95.592","COUNTRY_CODE":"US","DECAY_DATE":null,"ELEMENT_SET_NO":"999","REF_FRAME":"TEME","NORAD_CAT_ID":"45371","TLE_LINE1":"1 45371U 20019M   21266.74904022  .00000879  00000-0  77888-4 0  9993","MEAN_ELEMENT_THEORY":"SGP4","TIME_SYSTEM":"UTC","ARG_OF_PERICENTER":"56.6127","OBJECT_NAME":"STARLINK-1287","TLE_LINE2":"2 45371  53.0524 274.7380 0000514  56.6127 303.4911 15.06397841 84365","ECCENTRICITY":"0.00005140","SITE":"AFETR","CENTER_NAME":"EARTH","LAUNCH_DATE":"2020-03-18","PERIAPSIS":"546.864","SEMIMAJOR_AXIS":"6925.355","MEAN_MOTION":"15.06397841","CLASSIFICATION_TYPE":"U","EPOCH":"2021-09-23T17:58:37.075008","FILE":"3125337"},{"SITE":"AFETR","ECCENTRICITY":"0.00007300","TLE_LINE2":"2 45372  53.0543 274.6704 0000730  63.8063 296.3001 15.06399595 84363","OBJECT_NAME":"STARLINK-1288","ARG_OF_PERICENTER":"63.8063","TIME_SYSTEM":"UTC","MEAN_ELEMENT_THEORY":"SGP4","TLE_LINE1":"1 45372U 20019N   21266.76378601  .00000925  00000-0  81000-4 0  9997","FILE":"3125337","EPOCH":"2021-09-23T18:19:51.111264","CLASSIFICATION_TYPE":"U","MEAN_MOTION":"15.06399595","SEMIMAJOR_AXIS":"6925.350","LAUNCH_DATE":"2020-03-18","PERIAPSIS":"546.709","CENTER_NAME":"EARTH","REV_AT_EPOCH":"8436","INCLINATION":"53.0543","OBJECT_TYPE":"PAYLOAD","GP_ID":"185347801","MEAN_MOTION_DDOT":"0.0000000000000","OBJECT_ID":"2020-019N","MEAN_MOTION_DOT":"0.00000925","RCS_SIZE":"LARGE","NORAD_CAT_ID":"45372","REF_FRAME":"TEME","ELEMENT_SET_NO":"999","DECAY_DATE":null,"COUNTRY_CODE":"US","PERIOD":"95.592","RA_OF_ASC_NODE":"274.6704","MEAN_ANOMALY":"296.3001","EPHEMERIS_TYPE":"0","BSTAR":"0.00008100000000","APOAPSIS":"547.720"},{"PERIOD":"95.592","COUNTRY_CODE":"US","ELEMENT_SET_NO":"999","DECAY_DATE":null,"REF_FRAME":"TEME","NORAD_CAT_ID":"45373","APOAPSIS":"547.705","BSTAR":"0.00007936100000","EPHEMERIS_TYPE":"0","MEAN_ANOMALY":"285.7127","RA_OF_ASC_NODE":"274.7551","OBJECT_TYPE":"PAYLOAD","INCLINATION":"53.0532","REV_AT_EPOCH":"8436","RCS_SIZE":"LARGE","MEAN_MOTION_DOT":"0.00000901","OBJECT_ID":"2020-019P","MEAN_MOTION_DDOT":"0.0000000000000","GP_ID":"185348046","CLASSIFICATION_TYPE":"U","EPOCH":"2021-09-23T17:53:17.679264","FILE":"3125337","CENTER_NAME":"EARTH","LAUNCH_DATE":"2020-03-18","PERIAPSIS":"546.694","SEMIMAJOR_AXIS":"6925.334","MEAN_MOTION":"15.06404614","OBJECT_NAME":"STARLINK-1295","ARG_OF_PERICENTER":"74.3942","TLE_LINE2":"2 45373  53.0532 274.7551 0000730  74.3942 285.7127 15.06404614 84366","ECCENTRICITY":"0.00007300","SITE":"AFETR","TLE_LINE1":"1 45373U 20019P   21266.74534351  .00000901  00000-0  79361-4 0  9993","MEAN_ELEMENT_THEORY":"SGP4","TIME_SYSTEM":"UTC"},{"REV_AT_EPOCH":"8436","INCLINATION":"53.0534","OBJECT_TYPE":"PAYLOAD","GP_ID":"185348302","MEAN_MOTION_DDOT":"0.0000000000000","OBJECT_ID":"2020-019Q","MEAN_MOTION_DOT":"0.00001564","RCS_SIZE":"LARGE","NORAD_CAT_ID":"45374","REF_FRAME":"TEME","DECAY_DATE":null,"ELEMENT_SET_NO":"999","COUNTRY_CODE":"US","PERIOD":"95.592","RA_OF_ASC_NODE":"274.7721","MEAN_ANOMALY":"302.6398","EPHEMERIS_TYPE":"0","BSTAR":"0.00012383000000","APOAPSIS":"547.674","SITE":"AFETR","ECCENTRICITY":"0.00006840","TLE_LINE2":"2 45374  53.0534 274.7721 0000684  57.4657 302.6398 15.06404384 84364","OBJECT_NAME":"STARLINK-1300","ARG_OF_PERICENTER":"57.4657","TIME_SYSTEM":"UTC","MEAN_ELEMENT_THEORY":"SGP4","TLE_LINE1":"1 45374U 20019Q   21266.74166565  .00001564  00000-0  12383-3 0  9998","FILE":"3125337","EPOCH":"2021-09-23T17:47:59.912160","CLASSIFICATION_TYPE":"U","MEAN_MOTION":"15.06404384","SEMIMAJOR_AXIS":"6925.335","PERIAPSIS":"546.726","LAUNCH_DATE":"2020-03-18","CENTER_NAME":"EARTH"},{"TIME_SYSTEM":"UTC","MEAN_ELEMENT_THEORY":"SGP4","TLE_LINE1":"1 45375U 20019R   21266.75641081  .00000952  00000-0  82794-4 0  9995","SITE":"AFETR","ECCENTRICITY":"0.00008710","TLE_LINE2":"2 45375  53.0544 274.7028 0000871  57.2474 302.8599 15.06403830 84369","ARG_OF_PERICENTER":"57.2474","OBJECT_NAME":"STARLINK-1302","MEAN_MOTION":"15.06403830","SEMIMAJOR_AXIS":"6925.337","LAUNCH_DATE":"2020-03-18","PERIAPSIS":"546.599","CENTER_NAME":"EARTH","FILE":"3125337","CLASSIFICATION_TYPE":"U","EPOCH":"2021-09-23T18:09:13.893984","GP_ID":"185347554","MEAN_MOTION_DDOT":"0.0000000000000","OBJECT_ID":"2020-019R","RCS_SIZE":"LARGE","MEAN_MOTION_DOT":"0.00000952","REV_AT_EPOCH":"8436","INCLINATION":"53.0544","OBJECT_TYPE":"PAYLOAD","RA_OF_ASC_NODE":"274.7028","MEAN_ANOMALY":"302.8599","BSTAR":"0.00008279400000","EPHEMERIS_TYPE":"0","APOAPSIS":"547.805","REF_FRAME":"TEME","NORAD_CAT_ID":"45375","COUNTRY_CODE":"US","ELEMENT_SET_NO":"999","DECAY_DATE":null,"PERIOD":"95.592"},{"REV_AT_EPOCH":"8431","OBJECT_TYPE":"PAYLOAD","INCLINATION":"53.0543","MEAN_MOTION_DDOT":"0.0000000000000","OBJECT_ID":"2020-019S","GP_ID":"185314074","RCS_SIZE":"LARGE","MEAN_MOTION_DOT":"0.00001075","COUNTRY_CODE":"US","DECAY_DATE":null,"ELEMENT_SET_NO":"999","REF_FRAME":"TEME","NORAD_CAT_ID":"45376","PERIOD":"95.593","MEAN_ANOMALY":"300.9268","RA_OF_ASC_NODE":"276.1084","APOAPSIS":"548.144","BSTAR":"0.00009105200000","EPHEMERIS_TYPE":"0","ECCENTRICITY":"0.00012930","SITE":"AFETR","OBJECT_NAME":"STARLINK-1304","ARG_OF_PERICENTER":"59.1849","TLE_LINE2":"2 45376  53.0543 276.1084 0001293  59.1849 300.9268 15.06388605 84312","MEAN_ELEMENT_THEORY":"SGP4","TIME_SYSTEM":"UTC","TLE_LINE1":"1 45376U 20019S   21266.44311815  .00001075  00000-0  91052-4 0  9995","CLASSIFICATION_TYPE":"U","EPOCH":"2021-09-23T10:38:05.408160","FILE":"3124856","SEMIMAJOR_AXIS":"6925.383","MEAN_MOTION":"15.06388605","CENTER_NAME":"EARTH","LAUNCH_DATE":"2020-03-18","PERIAPSIS":"546.353"},{"BSTAR":"-0.00002066500000","EPHEMERIS_TYPE":"0","APOAPSIS":"547.801","RA_OF_ASC_NODE":"274.8045","MEAN_ANOMALY":"293.0629","PERIOD":"95.592","REF_FRAME":"TEME","NORAD_CAT_ID":"45377","COUNTRY_CODE":"US","DECAY_DATE":null,"ELEMENT_SET_NO":"999","RCS_SIZE":"LARGE","MEAN_MOTION_DOT":"-0.00000589","GP_ID":"185348546","OBJECT_ID":"2020-019T","MEAN_MOTION_DDOT":"0.0000000000000","INCLINATION":"53.0525","OBJECT_TYPE":"PAYLOAD","REV_AT_EPOCH":"8436","PERIAPSIS":"546.650","LAUNCH_DATE":"2020-03-18","CENTER_NAME":"EARTH","MEAN_MOTION":"15.06396221","SEMIMAJOR_AXIS":"6925.360","FILE":"3125337","CLASSIFICATION_TYPE":"U","EPOCH":"2021-09-23T17:37:23.595168","TLE_LINE1":"1 45377U 20019T   21266.73430087 -.00000589  00000-0 -20665-4 0  9994","MEAN_ELEMENT_THEORY":"SGP4","TIME_SYSTEM":"UTC","TLE_LINE2":"2 45377  53.0525 274.8045 0000831  67.0447 293.0629 15.06396221 84365","OBJECT_NAME":"STARLINK-1305","ARG_OF_PERICENTER":"67.0447","SITE":"AFETR","ECCENTRICITY":"0.00008310"},{"FILE":"3125337","EPOCH":"2021-09-23T17:21:27.768384","CLASSIFICATION_TYPE":"U","MEAN_MOTION":"15.06395888","SEMIMAJOR_AXIS":"6925.361","LAUNCH_DATE":"2020-03-18","PERIAPSIS":"546.748","CENTER_NAME":"EARTH","SITE":"AFETR","ECCENTRICITY":"0.00006900","TLE_LINE2":"2 45378  53.0542 274.8525 0000690  61.5989 298.5070 15.06395888 84369","ARG_OF_PERICENTER":"61.5989","OBJECT_NAME":"STARLINK-1310","TIME_SYSTEM":"UTC","MEAN_ELEMENT_THEORY":"SGP4","TLE_LINE1":"1 45378U 20019U   21266.72323806 -.00000475  00000-0 -13009-4 0  9992","NORAD_CAT_ID":"45378","REF_FRAME":"TEME","DECAY_DATE":null,"ELEMENT_SET_NO":"999","COUNTRY_CODE":"US","PERIOD":"95.592","RA_OF_ASC_NODE":"274.8525","MEAN_ANOMALY":"298.5070","EPHEMERIS_TYPE":"0","BSTAR":"-0.00001300900000","APOAPSIS":"547.704","REV_AT_EPOCH":"8436","INCLINATION":"53.0542","OBJECT_TYPE":"PAYLOAD","GP_ID":"185348802","MEAN_MOTION_DDOT":"0.0000000000000","OBJECT_ID":"2020-019U","MEAN_MOTION_DOT":"-0.00000475","RCS_SIZE":"LARGE"},{"REF_FRAME":"TEME","NORAD_CAT_ID":"45379","COUNTRY_CODE":"US","DECAY_DATE":null,"ELEMENT_SET_NO":"999","PERIOD":"95.592","RA_OF_ASC_NODE":"274.8408","MEAN_ANOMALY":"293.0482","BSTAR":"-0.00003867400000","EPHEMERIS_TYPE":"0","APOAPSIS":"547.737","REV_AT_EPOCH":"8436","INCLINATION":"53.0534","OBJECT_TYPE":"PAYLOAD","GP_ID":"185347055","OBJECT_ID":"2020-019V","MEAN_MOTION_DDOT":"0.0000000000000","RCS_SIZE":"LARGE","MEAN_MOTION_DOT":"-0.00000857","FILE":"3125337","CLASSIFICATION_TYPE":"U","EPOCH":"2021-09-23T17:26:46.306176","MEAN_MOTION":"15.06396176","SEMIMAJOR_AXIS":"6925.360","PERIAPSIS":"546.713","LAUNCH_DATE":"2020-03-18","CENTER_NAME":"EARTH","SITE":"AFETR","ECCENTRICITY":"0.00007390","TLE_LINE2":"2 45379  53.0534 274.8408 0000739  67.0585 293.0482 15.06396176 84366","ARG_OF_PERICENTER":"67.0585","OBJECT_NAME":"STARLINK-1319","MEAN_ELEMENT_THEORY":"SGP4","TIME_SYSTEM":"UTC","TLE_LINE1":"1 45379U 20019V   21266.72692484 -.00000857  00000-0 -38674-4 0  9993"},{"COUNTRY_CODE":"US","DECAY_DATE":null,"ELEMENT_SET_NO":"999","REF_FRAME":"TEME","NORAD_CAT_ID":"45380","PERIOD":"95.592","MEAN_ANOMALY":"296.3930","RA_OF_ASC_NODE":"256.3346","APOAPSIS":"548.001","BSTAR":"0.00010201000000","EPHEMERIS_TYPE":"0","REV_AT_EPOCH":"8458","OBJECT_TYPE":"PAYLOAD","INCLINATION":"53.0544","MEAN_MOTION_DDOT":"0.0000000000000","OBJECT_ID":"2020-019W","GP_ID":"185314574","RCS_SIZE":"LARGE","MEAN_MOTION_DOT":"0.00001239","CLASSIFICATION_TYPE":"U","EPOCH":"2021-09-23T09:26:25.094400","FILE":"3124856","SEMIMAJOR_AXIS":"6925.319","MEAN_MOTION":"15.06409576","CENTER_NAME":"EARTH","LAUNCH_DATE":"2020-03-18","PERIAPSIS":"546.367","ECCENTRICITY":"0.00011800","SITE":"AFETR","OBJECT_NAME":"STARLINK-1207","ARG_OF_PERICENTER":"63.7180","TLE_LINE2":"2 45380  53.0544 256.3346 0001180  63.7180 296.3930 15.06409576 84587","TIME_SYSTEM":"UTC","MEAN_ELEMENT_THEORY":"SGP4","TLE_LINE1":"1 45380U 20019W   21266.39334600  .00001239  00000-0  10201-3 0  9999"}];
